start=new Date('2021-11-11T00:00:00.000Z').valueOf();
sats=[{"MEAN_ANOMALY":"289.0807","PERIOD":"95.592","ELEMENT_SET_NO":"999","OBJECT_NAME":"STARLINK-1069","SEMIMAJOR_AXIS":"6925.338","RCS_SIZE":"LARGE","INCLINATION":"53.0534","NORAD_CAT_ID":"44955","BSTAR":"-0.00004975300000","CLASSIFICATION_TYPE":"U","REF_FRAME":"TEME","FILE":"3211038","TIME_SYSTEM":"UTC","MEAN_MOTION_DDOT":"0.0000000000000","MEAN_MOTION_DOT":"-0.00001023","PERIAPSIS":"546.085","CENTER_NAME":"EARTH","GP_ID":"189421692","ECCENTRICITY":"0.00016150","ARG_OF_PERICENTER":"71.0357","SITE":"AFETR","TLE_LINE1":"1 44955U 20001AT  21314.92611845 -.00001023  00000-0 -49753-4 0  9997","REV_AT_EPOCH":"10224","OBJECT_TYPE":"PAYLOAD","EPHEMERIS_TYPE":"0","DECAY_DATE":null,"APOAPSIS":"548.321","RA_OF_ASC_NODE":"198.4644","OBJECT_ID":"2020-001AT","TLE_LINE2":"2 44955  53.0534 198.4644 0001615  71.0357 289.0807 15.06403437102247","MEAN_MOTION":"15.06403437","COUNTRY_CODE":"US","MEAN_ELEMENT_THEORY":"SGP4","LAUNCH_DATE":"2020-01-07","EPOCH":"2021-11-10T22:13:36.634080"},{"LAUNCH_DATE":"2020-01-07","EPOCH":"2021-11-10T22:08:17.824992","MEAN_ELEMENT_THEORY":"SGP4","COUNTRY_CODE":"US","OBJECT_ID":"2020-001AU","TLE_LINE2":"2 44956  53.0541 198.4784 0001594  73.2115 286.9049 15.06395455102304","MEAN_MOTION":"15.06395455","RA_OF_ASC_NODE":"198.4784","DECAY_DATE":null,"APOAPSIS":"548.331","EPHEMERIS_TYPE":"0","TLE_LINE1":"1 44956U 20001AU  21314.92242853  .00002050  00000-0  15653-3 0  9997","REV_AT_EPOCH":"10230","OBJECT_TYPE":"PAYLOAD","SITE":"AFETR","ARG_OF_PERICENTER":"73.2115","ECCENTRICITY":"0.00015940","CENTER_NAME":"EARTH","PERIAPSIS":"546.124","MEAN_MOTION_DOT":"0.00002050","GP_ID":"189422442","MEAN_MOTION_DDOT":"0.0000000000000","TIME_SYSTEM":"UTC","FILE":"3211038","CLASSIFICATION_TYPE":"U","REF_FRAME":"TEME","BSTAR":"0.00015653000000","RCS_SIZE":"LARGE","NORAD_CAT_ID":"44956","INCLINATION":"53.0541","SEMIMAJOR_AXIS":"6925.362","PERIOD":"95.592","ELEMENT_SET_NO":"999","OBJECT_NAME":"STARLINK-1070","MEAN_ANOMALY":"286.9049"},{"EPOCH":"2021-11-10T22:45:28.332576","LAUNCH_DATE":"2020-01-07","MEAN_ELEMENT_THEORY":"SGP4","COUNTRY_CODE":"US","TLE_LINE2":"2 44957  53.0529 198.3636 0001667  70.7727 289.3442 15.06404838102308","MEAN_MOTION":"15.06404838","OBJECT_ID":"2020-001AV","RA_OF_ASC_NODE":"198.3636","APOAPSIS":"548.353","DECAY_DATE":null,"EPHEMERIS_TYPE":"0","OBJECT_TYPE":"PAYLOAD","REV_AT_EPOCH":"10230","TLE_LINE1":"1 44957U 20001AV  21314.94824459  .00004080  00000-0  29258-3 0  9999","SITE":"AFETR","ARG_OF_PERICENTER":"70.7727","ECCENTRICITY":"0.00016670","GP_ID":"189423170","PERIAPSIS":"546.044","MEAN_MOTION_DOT":"0.00004080","CENTER_NAME":"EARTH","MEAN_MOTION_DDOT":"0.0000000000000","TIME_SYSTEM":"UTC","FILE":"3211038","REF_FRAME":"TEME","CLASSIFICATION_TYPE":"U","BSTAR":"0.00029258000000","NORAD_CAT_ID":"44957","INCLINATION":"53.0529","RCS_SIZE":"LARGE","SEMIMAJOR_AXIS":"6925.334","OBJECT_NAME":"STARLINK-1074","ELEMENT_SET_NO":"999","PERIOD":"95.592","MEAN_ANOMALY":"289.3442"},{"RA_OF_ASC_NODE":"198.5957","EPHEMERIS_TYPE":"0","APOAPSIS":"548.374","DECAY_DATE":null,"SITE":"AFETR","OBJECT_TYPE":"PAYLOAD","TLE_LINE1":"1 44959U 20001AX  21314.89662407 -.00000233  00000-0  32722-5 0  9997","REV_AT_EPOCH":"10229","MEAN_ELEMENT_THEORY":"SGP4","EPOCH":"2021-11-10T21:31:08.319648","LAUNCH_DATE":"2020-01-07","TLE_LINE2":"2 44959  53.0541 198.5957 0001662  70.3027 289.8141 15.06396874102295","MEAN_MOTION":"15.06396874","OBJECT_ID":"2020-001AX","COUNTRY_CODE":"US","REF_FRAME":"TEME","CLASSIFICATION_TYPE":"U","FILE":"3211038","BSTAR":"0.00000327220000","SEMIMAJOR_AXIS":"6925.358","NORAD_CAT_ID":"44959","INCLINATION":"53.0541","RCS_SIZE":"LARGE","MEAN_ANOMALY":"289.8141","OBJECT_NAME":"STARLINK-1076","ELEMENT_SET_NO":"999","PERIOD":"95.592","ARG_OF_PERICENTER":"70.3027","ECCENTRICITY":"0.00016620","MEAN_MOTION_DDOT":"0.0000000000000","GP_ID":"189423368","PERIAPSIS":"546.072","CENTER_NAME":"EARTH","MEAN_MOTION_DOT":"-0.00000233","TIME_SYSTEM":"UTC"},{"ARG_OF_PERICENTER":"64.5278","ECCENTRICITY":"0.00017920","GP_ID":"189422192","PERIAPSIS":"545.959","MEAN_MOTION_DOT":"-0.00000643","CENTER_NAME":"EARTH","MEAN_MOTION_DDOT":"0.0000000000000","TIME_SYSTEM":"UTC","FILE":"3211038","REF_FRAME":"TEME","CLASSIFICATION_TYPE":"U","BSTAR":"-0.00002426700000","INCLINATION":"53.0534","NORAD_CAT_ID":"44961","RCS_SIZE":"LARGE","SEMIMAJOR_AXIS":"6925.335","OBJECT_NAME":"STARLINK-1080","ELEMENT_SET_NO":"999","PERIOD":"95.592","MEAN_ANOMALY":"295.5897","EPOCH":"2021-11-10T21:41:45.057408","LAUNCH_DATE":"2020-01-07","MEAN_ELEMENT_THEORY":"SGP4","COUNTRY_CODE":"US","TLE_LINE2":"2 44961  53.0534 198.5564 0001792  64.5278 295.5897 15.06404538102302","MEAN_MOTION":"15.06404538","OBJECT_ID":"2020-001AZ","RA_OF_ASC_NODE":"198.5564","APOAPSIS":"548.441","DECAY_DATE":null,"EPHEMERIS_TYPE":"0","OBJECT_TYPE":"PAYLOAD","REV_AT_EPOCH":"10230","TLE_LINE1":"1 44961U 20001AZ  21314.90399372 -.00000643  00000-0 -24267-4 0  9990","SITE":"AFETR"},{"FILE":"3211038","REF_FRAME":"TEME","CLASSIFICATION_TYPE":"U","BSTAR":"0.00021887000000","INCLINATION":"52.9986","NORAD_CAT_ID":"44963","RCS_SIZE":"LARGE","SEMIMAJOR_AXIS":"6918.782","OBJECT_NAME":"STARLINK-1085","ELEMENT_SET_NO":"999","PERIOD":"95.456","MEAN_ANOMALY":"261.4753","ARG_OF_PERICENTER":"98.6531","ECCENTRICITY":"0.00026060","GP_ID":"189421943","PERIAPSIS":"538.844","CENTER_NAME":"EARTH","MEAN_MOTION_DOT":"0.00003170","MEAN_MOTION_DDOT":"0.0000000000000","TIME_SYSTEM":"UTC","RA_OF_ASC_NODE":"194.5323","APOAPSIS":"542.450","DECAY_DATE":null,"EPHEMERIS_TYPE":"0","OBJECT_TYPE":"PAYLOAD","TLE_LINE1":"1 44963U 20001BB  21314.92210144  .00003170  00000-0  21887-3 0  9993","REV_AT_EPOCH":"10307","SITE":"AFETR","EPOCH":"2021-11-10T22:07:49.564416","LAUNCH_DATE":"2020-01-07","MEAN_ELEMENT_THEORY":"SGP4","COUNTRY_CODE":"US","TLE_LINE2":"2 44963  52.9986 194.5323 0002606  98.6531 261.4753 15.08545228103079","OBJECT_ID":"2020-001BB","MEAN_MOTION":"15.08545228"},{"RA_OF_ASC_NODE":"198.4278","EPHEMERIS_TYPE":"0","DECAY_DATE":null,"APOAPSIS":"548.265","SITE":"AFETR","REV_AT_EPOCH":"10230","TLE_LINE1":"1 44964U 20001BC  21314.93348823  .00002769  00000-0  20474-3 0  9995","OBJECT_TYPE":"PAYLOAD","MEAN_ELEMENT_THEORY":"SGP4","LAUNCH_DATE":"2020-01-07","EPOCH":"2021-11-10T22:24:13.383072","TLE_LINE2":"2 44964  53.0522 198.4278 0001525  66.0239 294.0909 15.06401386102307","MEAN_MOTION":"15.06401386","OBJECT_ID":"2020-001BC","COUNTRY_CODE":"US","CLASSIFICATION_TYPE":"U","REF_FRAME":"TEME","FILE":"3211038","BSTAR":"0.00020474000000","SEMIMAJOR_AXIS":"6925.344","RCS_SIZE":"LARGE","NORAD_CAT_ID":"44964","INCLINATION":"53.0522","MEAN_ANOMALY":"294.0909","PERIOD":"95.592","ELEMENT_SET_NO":"999","OBJECT_NAME":"STARLINK-1086","ARG_OF_PERICENTER":"66.0239","ECCENTRICITY":"0.00015250","MEAN_MOTION_DDOT":"0.0000000000000","PERIAPSIS":"546.153","CENTER_NAME":"EARTH","MEAN_MOTION_DOT":"0.00002769","GP_ID":"189422671","TIME_SYSTEM":"UTC"},{"BSTAR":"0.00034690000000","FILE":"3211038","CLASSIFICATION_TYPE":"U","REF_FRAME":"TEME","PERIOD":"95.591","ELEMENT_SET_NO":"999","OBJECT_NAME":"STARLINK-1088","MEAN_ANOMALY":"291.1167","RCS_SIZE":"LARGE","INCLINATION":"53.0538","NORAD_CAT_ID":"44966","SEMIMAJOR_AXIS":"6925.313","ECCENTRICITY":"0.00013960","ARG_OF_PERICENTER":"68.9971","TIME_SYSTEM":"UTC","PERIAPSIS":"546.211","CENTER_NAME":"EARTH","MEAN_MOTION_DOT":"0.00004891","GP_ID":"189422869","MEAN_MOTION_DDOT":"0.0000000000000","DECAY_DATE":null,"APOAPSIS":"548.145","EPHEMERIS_TYPE":"0","RA_OF_ASC_NODE":"198.3238","TLE_LINE1":"1 44966U 20001BE  21314.95559302  .00004891  00000-0  34690-3 0  9998","REV_AT_EPOCH":"10230","OBJECT_TYPE":"PAYLOAD","SITE":"AFETR","COUNTRY_CODE":"US","TLE_LINE2":"2 44966  53.0538 198.3238 0001396  68.9971 291.1167 15.06411640102309","OBJECT_ID":"2020-001BE","MEAN_MOTION":"15.06411640","LAUNCH_DATE":"2020-01-07","EPOCH":"2021-11-10T22:56:03.236928","MEAN_ELEMENT_THEORY":"SGP4"},{"SEMIMAJOR_AXIS":"6925.308","INCLINATION":"53.0534","NORAD_CAT_ID":"44967","RCS_SIZE":"LARGE","MEAN_ANOMALY":"290.9441","OBJECT_NAME":"STARLINK-1089","PERIOD":"95.591","ELEMENT_SET_NO":"999","REF_FRAME":"TEME","CLASSIFICATION_TYPE":"U","FILE":"3211038","BSTAR":"0.00032946000000","MEAN_MOTION_DDOT":"0.0000000000000","GP_ID":"189421693","PERIAPSIS":"546.110","MEAN_MOTION_DOT":"0.00004631","CENTER_NAME":"EARTH","TIME_SYSTEM":"UTC","ARG_OF_PERICENTER":"69.1713","ECCENTRICITY":"0.00015350","SITE":"AFETR","OBJECT_TYPE":"PAYLOAD","REV_AT_EPOCH":"10230","TLE_LINE1":"1 44967U 20001BF  21314.91138263  .00004631  00000-0  32946-3 0  9998","RA_OF_ASC_NODE":"198.5266","EPHEMERIS_TYPE":"0","APOAPSIS":"548.236","DECAY_DATE":null,"MEAN_ELEMENT_THEORY":"SGP4","EPOCH":"2021-11-10T21:52:23.459232","LAUNCH_DATE":"2020-01-07","OBJECT_ID":"2020-001BF","TLE_LINE2":"2 44967  53.0534 198.5266 0001535  69.1713 290.9441 15.06413159102300","MEAN_MOTION":"15.06413159","COUNTRY_CODE":"US"},{"LAUNCH_DATE":"2020-01-07","EPOCH":"2021-11-10T21:47:03.808608","MEAN_ELEMENT_THEORY":"SGP4","COUNTRY_CODE":"US","OBJECT_ID":"2020-001BG","TLE_LINE2":"2 44968  53.0531 198.5371 0001528  76.3033 283.8126 15.06413666102306","MEAN_MOTION":"15.06413666","TLE_LINE1":"1 44968U 20001BG  21314.90768297  .00003602  00000-0  26047-3 0  9996","REV_AT_EPOCH":"10230","OBJECT_TYPE":"PAYLOAD","SITE":"AFETR","RA_OF_ASC_NODE":"198.5371","DECAY_DATE":null,"APOAPSIS":"548.230","EPHEMERIS_TYPE":"0","MEAN_MOTION_DOT":"0.00003602","PERIAPSIS":"546.113","CENTER_NAME":"EARTH","GP_ID":"189422443","MEAN_MOTION_DDOT":"0.0000000000000","TIME_SYSTEM":"UTC","ARG_OF_PERICENTER":"76.3033","ECCENTRICITY":"0.00015280","RCS_SIZE":"LARGE","INCLINATION":"53.0531","NORAD_CAT_ID":"44968","SEMIMAJOR_AXIS":"6925.307","PERIOD":"95.591","ELEMENT_SET_NO":"999","OBJECT_NAME":"STARLINK-1090","MEAN_ANOMALY":"283.8126","FILE":"3211038","CLASSIFICATION_TYPE":"U","REF_FRAME":"TEME","BSTAR":"0.00026047000000"}];
